NORAD_CAT_ID,OBJECT_NAME,OBJECT_TYPE,EPOCH,MEAN_MOTION,ECCENTRICITY,INCLINATION,RA_OF_ASC_NODE,ARG_OF_PERICENTER,MEAN_ANOMALY,BSTAR,MEAN_MOTION_DOT,MEAN_MOTION_DDOT,TLE_LINE0,TLE_LINE1,TLE_LINE2,SEMIMAJOR_AXIS,PERIOD,APOGEE,PERIGEE,DECAYED
53790.0,STARLINK-4734,PAYLOAD,2023-10-05 18:24:33,15.08842143,0.0001659,53.2165,291.0589,87.5845,272.5337,0.00010742,1.422e-05,0.0,0 STARLINK-4734,1 53790U 22111T   23278.76705521  .00001422  00000-0  10742-3 0  9992,2 53790  53.2165 291.0589 0001659  87.5845 272.5337 15.08842143 59953,6917.874,95.437,540.887,538.591,0.0
53790.0,STARLINK-4734,PAYLOAD,2023-10-06 00:46:06,15.08842406,0.0001694,53.2162,289.8697,94.4243,265.6942,3.2029e-05,2.22e-06,0.0,0 STARLINK-4734,1 53790U 22111T   23279.03201554  .00000222  00000-0  32029-4 0  9990,2 53790  53.2162 289.8697 0001694  94.4243 265.6942 15.08842406 59185,6917.873,95.437,540.91,538.566,0.0
53790.0,STARLINK-4734,PAYLOAD,2023-10-06 10:18:24,15.08845478,0.0001712,53.2167,288.0852,95.2707,264.848,0.00010352,1.36e-05,0.0,0 STARLINK-4734,1 53790U 22111T   23279.42945416  .00001360  00000-0  10352-3 0  9993,2 53790  53.2167 288.0852 0001712  95.2707 264.8480 15.08845478 60057,6917.864,95.437,540.913,538.544,0.0
53790.0,STARLINK-4734,PAYLOAD,2023-10-06 18:15:20,15.0884246,0.0001761,53.217,286.5984,93.8708,266.2485,7.5133e-05,9.08e-06,0.0,0 STARLINK-4734,1 53790U 22111T   23279.76065590  .00000908  00000-0  75133-4 0  9992,2 53790  53.2170 286.5984 0001761  93.8708 266.2485 15.08842460 60104,6917.873,95.437,540.956,538.52,0.0
53790.0,STARLINK-4734,PAYLOAD,2023-10-07 00:36:53,15.08837463,0.0001645,53.2167,285.4092,93.3499,266.7681,0.00014829,2.073e-05,0.0,0 STARLINK-4734,1 53790U 22111T   23280.02561903  .00002073  00000-0  14829-3 0  9991,2 53790  53.2167 285.4092 0001645  93.3499 266.7681 15.08837463 59334,6917.888,95.438,540.891,538.615,0.0
53790.0,STARLINK-4734,PAYLOAD,2023-10-07 06:58:25,15.08845348,0.0001673,53.2163,284.219,103.5973,256.5205,0.00014562,2.031e-05,0.0,0 STARLINK-4734,1 53790U 22111T   23280.29057353  .00002031  00000-0  14562-3 0  9997,2 53790  53.2163 284.2190 0001673 103.5973 256.5205 15.08845348 59372,6917.864,95.437,540.886,538.572,0.0
53790.0,STARLINK-4734,PAYLOAD,2023-10-08 00:27:40,15.08836192,0.0001656,53.2157,280.9487,99.2185,260.8994,7.1182e-05,8.45e-06,0.0,0 STARLINK-4734,1 53790U 22111T   23281.01921966  .00000845  00000-0  71182-4 0  9991,2 53790  53.2157 280.9487 0001656  99.2185 260.8994 15.08836192 59486,6917.892,95.438,540.903,538.611,0.0
53790.0,STARLINK-4734,PAYLOAD,2023-10-08 06:49:12,15.08842452,0.0001539,53.2169,279.7585,95.809,264.3078,7.5217e-05,9.09e-06,0.0,0 STARLINK-4734,1 53790U 22111T   23281.28417661  .00000909  00000-0  75217-4 0  9996,2 53790  53.2169 279.7585 0001539  95.8090 264.3078 15.08842452 60335,6917.873,95.437,540.803,538.673,0.0
53790.0,STARLINK-4734,PAYLOAD,2023-10-09 03:29:13,15.08841587,0.0001535,53.2169,275.8946,92.1693,267.9475,0.00011896,1.606e-05,0.0,0 STARLINK-4734,1 53790U 22111T   23282.14529730  .00001606  00000-0  11896-3 0  9990,2 53790  53.2169 275.8946 0001535  92.1693 267.9475 15.08841587 59659,6917.876,95.437,540.802,538.679,0.0
53790.0,STARLINK-4734,PAYLOAD,2023-10-09 06:39:59,15.08850308,0.0001476,53.2171,275.2991,98.9142,261.2017,0.0001525,2.141e-05,0.0,0 STARLINK-4734,1 53790U 22111T   23282.27777033  .00002141  00000-0  15250-3 0  9998,2 53790  53.2171 275.2991 0001476  98.9142 261.2017 15.08850308 59675,6917.849,95.437,540.735,538.693,0.0
53790.0,STARLINK-4734,PAYLOAD,2023-10-09 16:12:18,15.08848267,0.0001376,53.2173,273.5161,95.6377,264.4772,4.8014e-05,4.76e-06,0.0,0 STARLINK-4734,1 53790U 22111T   23282.67521214  .00000476  00000-0  48014-4 0  9994,2 53790  53.2173 273.5161 0001376  95.6377 264.4772 15.08848267 60542,6917.855,95.437,540.672,538.768,0.0
53790.0,STARLINK-4734,PAYLOAD,2023-10-10 00:09:14,15.08835745,0.0001894,53.2197,272.0306,100.6607,259.4599,8.3456e-05,1.04e-05,0.0,0 STARLINK-4734,1 53790U 22111T   23283.00642274  .00001040  00000-0  83456-4 0  9999,2 53790  53.2197 272.0306 0001894 100.6607 259.4599 15.08835745 59783,6917.893,95.438,541.069,538.448,0.0
53790.0,STARLINK-4734,PAYLOAD,2023-10-10 08:06:10,15.08839173,0.0001613,53.2192,270.5444,88.9018,271.2159,0.00011552,1.551e-05,0.0,0 STARLINK-4734,1 53790U 22111T   23283.33762121  .00001551  00000-0  11552-3 0  9993,2 53790  53.2192 270.5444 0001613  88.9018 271.2159 15.08839173 60647,6917.883,95.438,540.864,538.632,0.0
53790.0,STARLINK-4734,PAYLOAD,2023-10-10 22:24:38,15.08834131,0.0001531,53.2165,267.866,92.3019,267.8148,-0.00010846,-2.013e-05,0.0,0 STARLINK-4734,1 53790U 22111T   23283.93378359 -.00002013  00000-0 -10846-3 0  9996,2 53790  53.2165 267.8660 0001531  92.3019 267.8148 15.08834131 60733,6917.898,95.438,540.822,538.704,0.0
53790.0,STARLINK-4734,PAYLOAD,2023-10-11 03:10:48,15.08837947,0.0001477,53.2179,266.9744,96.083,264.033,-9.9444e-06,-4.46e-06,0.0,0 STARLINK-4734,1 53790U 22111T   23284.13250695 -.00000446  00000-0 -99444-5 0  9992,2 53790  53.2179 266.9744 0001477  96.0830 264.0330 15.08837947 59954,6917.887,95.438,540.773,538.73,0.0
53790.0,STARLINK-4734,PAYLOAD,2023-10-11 09:32:20,15.08843587,0.0001811,53.2175,265.7835,97.775,262.3448,8.8946e-05,1.128e-05,0.0,0 STARLINK-4734,1 53790U 22111T   23284.39746022  .00001128  00000-0  88946-4 0  9994,2 53790  53.2175 265.7835 0001811  97.7750 262.3448 15.08843587 59991,6917.869,95.437,540.987,538.482,0.0
53790.0,STARLINK-4734,PAYLOAD,2023-10-12 04:36:58,15.08836766,0.0001783,53.2168,262.2149,91.0379,269.0817,9.0134e-05,1.147e-05,0.0,0 STARLINK-4734,1 53790U 22111T   23285.19234721  .00001147  00000-0  90134-4 0  9994,2 53790  53.2168 262.2149 0001783  91.0379 269.0817 15.08836766 60116,6917.89,95.438,540.989,538.522,0.0
53790.0,STARLINK-4734,PAYLOAD,2023-10-12 07:47:44,15.08840988,0.0001598,53.2169,261.6213,89.1693,270.9483,0.00013121,1.801e-05,0.0,0 STARLINK-4734,1 53790U 22111T   23285.32482512  .00001801  00000-0  13121-3 0  9999,2 53790  53.2169 261.6213 0001598  89.1693 270.9483 15.08840988 60945,6917.877,95.437,540.848,538.637,0.0
53790.0,STARLINK-4734,PAYLOAD,2023-10-12 15:44:40,15.08838831,0.0001663,53.2169,260.1338,86.5036,273.6146,6.6547e-05,7.71e-06,0.0,0 STARLINK-4734,1 53790U 22111T   23285.65602749  .00000771  00000-0  66547-4 0  9997,2 53790  53.2169 260.1338 0001663  86.5036 273.6146 15.08838831 60997,6917.884,95.438,540.899,538.599,0.0
53790.0,STARLINK-4734,PAYLOAD,2023-10-13 07:38:31,15.08851323,0.0001463,53.2167,257.158,95.1183,264.9976,0.00024311,3.584e-05,0.0,0 STARLINK-4734,1 53790U 22111T   23286.31842161  .00003584  00000-0  24311-3 0  9992,2 53790  53.2167 257.1580 0001463  95.1183 264.9976 15.08851323 60284,6917.846,95.437,540.723,538.699,0.0
53790.0,STARLINK-4734,PAYLOAD,2023-10-13 15:35:27,15.08846808,0.0001489,53.2156,255.6725,100.0911,260.0249,0.00014032,1.946e-05,0.0,0 STARLINK-4734,1 53790U 22111T   23286.64962303  .00001946  00000-0  14032-3 0  9998,2 53790  53.2156 255.6725 0001489 100.0911 260.0249 15.08846808 60337,6917.86,95.437,540.755,538.695,0.0
53790.0,STARLINK-4734,PAYLOAD,2023-10-14 04:18:32,15.08853125,0.000148,53.216,253.2917,103.4857,256.63,0.00018607,2.676e-05,0.0,0 STARLINK-4734,1 53790U 22111T   23287.17953788  .00002676  00000-0  18607-3 0  9997,2 53790  53.2160 253.2917 0001480 103.4857 256.6300 15.08853125 61224,6917.84,95.437,540.729,538.681,0.0
53790.0,STARLINK-4734,PAYLOAD,2023-10-14 15:26:14,15.0884511,0.0001908,53.2173,251.2132,74.2078,285.9124,6.4928e-05,7.45e-06,0.0,0 STARLINK-4734,1 53790U 22111T   23287.64322379  .00000745  00000-0  64928-4 0  9998,2 53790  53.2173 251.2132 0001908  74.2078 285.9124 15.08845110 60481,6917.865,95.437,541.05,538.41,0.0
53790.0,STARLINK-4734,PAYLOAD,2023-10-14 21:47:47,15.08827834,0.0001848,53.2159,250.0209,96.8782,263.242,-0.00015419,-2.74e-05,0.0,0 STARLINK-4734,1 53790U 22111T   23287.90819247 -.00002740  00000-0 -15419-3 0  9991,2 53790  53.2159 250.0209 0001848  96.8782 263.2420 15.08827834 61338,6917.918,95.438,541.061,538.504,0.0
53790.0,STARLINK-4734,PAYLOAD,2023-10-15 04:09:20,15.08829772,0.0001447,53.2164,248.8324,102.7855,257.3299,-0.00014591,-2.609e-05,0.0,0 STARLINK-4734,1 53790U 22111T   23288.17315281 -.00002609  00000-0 -14591-3 0  9994,2 53790  53.2164 248.8324 0001447 102.7855 257.3299 15.08829772 60565,6917.912,95.438,540.778,538.776,0.0
53790.0,STARLINK-4734,PAYLOAD,2023-10-15 07:20:06,15.08830701,0.0001495,53.2164,248.2372,108.3053,251.8102,-0.00011376,-2.098e-05,0.0,0 STARLINK-4734,1 53790U 22111T   23288.30563301 -.00002098  00000-0 -11376-3 0  9997,2 53790  53.2164 248.2372 0001495 108.3053 251.8102 15.08830701 61395,6917.909,95.438,540.808,538.74,0.0
53790.0,STARLINK-4734,PAYLOAD,2023-10-16 07:10:53,15.08873301,0.0001359,53.2172,243.7788,90.9838,269.1309,0.0015065,0.00023791,0.0,0 STARLINK-4734,1 53790U 22111T   23289.29922723  .00023791  00000-0  15065-2 0  9992,2 53790  53.2172 243.7788 0001359  90.9838 269.1309 15.08873301 60732,6917.779,95.435,540.584,538.703,0.0
53790.0,STARLINK-4734,PAYLOAD,2023-10-16 16:43:12,15.08859616,0.0001659,53.2175,241.9937,110.93,249.187,0.00085893,0.00013416,0.0,0 STARLINK-4734,1 53790U 22111T   23289.69666689  .00013416  00000-0  85893-3 0  9992,2 53790  53.2175 241.9937 0001659 110.9300 249.1870 15.08859616 60791,6917.82,95.436,540.833,538.538,0.0
53790.0,STARLINK-4734,PAYLOAD,2023-10-17 13:23:12,15.08850402,0.0001113,53.218,238.1289,85.5281,274.5838,0.0011785,0.00018523,0.0,0 STARLINK-4734,1 53790U 22111T   23290.55778922  .00018523  00000-0  11785-2 0  9995,2 53790  53.2180 238.1289 0001113  85.5281 274.5838 15.08850402 61730,6917.849,95.437,540.484,538.944,0.0
53790.0,STARLINK-4734,PAYLOAD,2023-10-18 03:41:41,15.08856196,0.000139,53.2171,235.4537,104.5323,255.5824,0.0012726,0.00020032,0.0,0 STARLINK-4734,1 53790U 22111T   23291.15394871  .00020032  00000-0  12726-2 0  9993,2 53790  53.2171 235.4537 0001390 104.5323 255.5824 15.08856196 61013,6917.831,95.437,540.657,538.734,0.0
